ALOS-4 (DAICHI-4)       
1 60182U 24123A   24203.21665227  .00004599  00000+0  62068-3 0  9992
2 60182  97.9222 299.3924 0001939  95.8030 264.3403 14.79579336  2979
